GAOFEN-11 01            
1 43585U 18063A   26170.93988208  .00011067  00000+0  16437-3 0  9994
2 43585  97.1288 237.8109 0002740 345.2655  14.8520 15.55354007440772
ICESAT-2                
1 43613U 18070A   26170.90512100  .00007804  00000+0  28286-3 0  9994
2 43613  92.0082 291.7134 0006104 101.1572 259.0364 15.28322876432872
HYSIS                   
1 43719U 18096A   26170.85064206 -.00000183  00000+0 -17882-4 0  9998
2 43719  97.9834 237.5779 0001775  96.0029 264.1384 14.78618256407818
KAZSTSAT                
1 43783U 18099AB  26170.63264612  .00001398  00000+0  11725-3 0  9997
2 43783  97.4271 202.4497 0008597  63.3486 296.8617 14.99873117411672
SAUDISAT 5A             
1 43831U 18102A   26170.98066947  .00004539  00000+0  16821-3 0  9997
2 43831  97.3062 232.5080 0011161 120.5146 239.7197 15.28071871416107
SAUDISAT 5B             
1 43833U 18102C   26170.93357225  .00004229  00000+0  15568-3 0  9999
2 43833  97.3172 235.5365 0011843 122.7811 237.4571 15.28326781416216
GAOFEN-10R              
1 44622U 19066A   26170.98750230  .00000878  00000+0  11464-3 0  9991
2 44622  98.0503 124.5872 0006816 120.1046 240.0843 14.83065899362790
CARTOSAT-3              
1 44804U 19081A   26170.92355618  .00001918  00000+0  93960-4 0  9993
2 44804  97.4297 232.7471 0013395 139.6393 220.5838 15.19293089363884
GAOFEN-12 01            
1 44819U 19082A   26170.98599510  .00000264  00000+0  41099-4 0  9996
2 44819  97.8100 177.2916 0002193  67.0036 293.1407 14.80460367354505
CSG-1                   
1 44873U 19092A   26170.95430273  .00000294  00000+0  43494-4 0  9998
2 44873  97.8889 354.5166 0001445  90.0315 270.1064 14.82155088351886
NEMO-HD                 
1 46277U 20061F   26170.98023498  .00009026  00000+0  19564-3 0  9998
2 46277  97.1915 232.9051 0002152  79.0129 281.1362 15.44641563322414
SENTINEL-6A             
1 46984U 20086A   26170.58391345 -.00000051  00000+0  41848-4 0  9996
2 46984  66.0397 130.0742 0007924 270.1963  89.8144 12.80929975260634
CAS500-1                
1 47932U 21022A   26170.95935100  .00004703  00000+0  22048-3 0  9992
2 47932  97.3894  66.1565 0003291 286.2031  73.8841 15.20158554291181
GAOFEN-12 02            
1 48079U 21026A   26170.92975843  .00000254  00000+0  40236-4 0  9991
2 48079  97.9922 169.0991 0003880 210.6514 149.4472 14.80297837282160
PLEIADES NEO 3          
1 48268U 21034A   26171.22457444  .00000553  00000+0  76837-4 0  9994
2 48268  97.8936 245.9479 0001344  97.8781 262.2585 14.81670693278107
PLEIADES NEO 4          
1 49070U 21073E   26171.19079185  .00000935  00000+0  12545-3 0  9996
2 49070  97.8938 245.9107 0001332  95.8558 264.2807 14.81668464261818
LANDSAT 9               
1 49260U 21088A   26170.73731836  .00000242  00000+0  63925-4 0  9990
2 49260  98.2280 240.8839 0001337  85.0298 275.1053 14.57098593251374
CSG-2                   
1 51444U 22008A   26170.92052432  .00000212  00000+0  33249-4 0  9992
2 51444  97.8884 354.4780 0001448  87.6062 272.5317 14.82156994236996
GAOFEN-12 03            
1 52912U 22069A   26170.96016288  .00000287  00000+0  44667-4 0  9991
2 52912  97.8273  58.7603 0002155 101.4291 258.7163 14.80036772215027
SWOT                    
1 54754U 22173A   26170.91787958  .00000059  00000+0  41862-4 0  9998
2 54754  77.6105  31.6239 0000279  91.8241 268.2943 14.00169909179538
GAOFEN-12 04            
1 57654U 23123A   26170.97647243  .00000737  00000+0  10364-3 0  9999
2 57654  97.9120  88.9543 0001777  82.2393 277.9021 14.80233177153040
PARS 1                  
1 59065U 24039Q   26170.96868874  .00009562  00000+0  19899-3 0  9995
2 59065  97.4827 151.9760 0011540 103.3207 256.9330 15.45773457129075
RESURS-P 4              
1 59371U 24061A   26170.94089678  .00002456  00000+0  81578-4 0  9994
2 59371  97.2753 118.7916 0002367 123.5801 236.5667 15.32144371124183
LEGION 1                
1 59625U 24081A   26170.93200346  .00002739  00000+0  14323-3 0  9991
2 59625  97.5015 248.7598 0009256   8.5045 351.6343 15.16682389117950
LEGION 2                
1 59626U 24081B   26170.89604544  .00003053  00000+0  15928-3 0  9997
2 59626  97.5016 248.8216 0010531 333.7655  26.3043 15.16660566117954
ALOS-4 (DAICHI-4)       
1 60182U 24123A   26170.93146815  .00001077  00000+0  15104-3 0  9990
2 60182  97.9248 268.0669 0001626  96.8796 263.2600 14.79473003106289
LEGION 3                
1 60452U 24146A   26170.96431447  .00003514  00000+0  19299-3 0  9993
2 60452  45.0028  15.6606 0007996 186.0915 173.9867 15.16055804102440
LEGION 4                
1 60453U 24146B   26170.90153390  .00003742  00000+0  20444-3 0  9993
2 60453  45.0014 107.9076 0013525 322.6643  37.3295 15.16050418101288
SENTINEL-2C             
1 60989U 24157A   26170.75995735  .00000073  00000+0  44425-4 0  9999
2 60989  98.5692 245.5057 0000998  82.9901 277.1395 14.30818423 93354
IONOSFERA-M 1           
1 61735U 24199A   26170.93650266  .00000031  00000+0  33373-4 0  9996
2 61735  98.7170  44.0797 0002025 106.7328 253.4072 14.22754797128094
