OBJECT_NAME,OBJECT_ID,EPOCH,MEAN_MOTION,ECCENTRICITY,INCLINATION,RA_OF_ASC_NODE,ARG_OF_PERICENTER,MEAN_ANOMALY,EPHEMERIS_TYPE,CLASSIFICATION_TYPE,NORAD_CAT_ID,ELEMENT_SET_NO,REV_AT_EPOCH,BSTAR,MEAN_MOTION_DOT,MEAN_MOTION_DDOT
GAOFEN-11 01,2018-063A,2026-06-19T22:33:25.811712,15.55354007,.00027401,97.1288,237.8109,345.2655,14.8520,0,U,43585,999,44077,.16436667E-3,.11067E-3,0
ICESAT-2,2018-070A,2026-06-19T21:43:22.454400,15.28322876,.00061046,92.0082,291.7134,101.1572,259.0364,0,U,43613,999,43287,.28285622E-3,.7804E-4,0
HYSIS,2018-096A,2026-06-19T20:24:55.473984,14.78618256,.00017754,97.9834,237.5779,96.0029,264.1384,0,U,43719,999,40781,-.17881945E-4,-.183E-5,0
KAZSTSAT,2018-099AB,2026-06-19T15:11:00.624768,14.99873117,.00085977,97.4271,202.4497,63.3486,296.8617,0,U,43783,999,41167,.11725413E-3,.1398E-4,0
SAUDISAT 5A,2018-102A,2026-06-19T23:32:09.842208,15.28071871,.00111611,97.3062,232.5080,120.5146,239.7197,0,U,43831,999,41610,.16820772E-3,.4539E-4,0
SAUDISAT 5B,2018-102C,2026-06-19T22:24:20.642400,15.28326781,.00118435,97.3172,235.5365,122.7811,237.4571,0,U,43833,999,41621,.15568455E-3,.4229E-4,0
GAOFEN-10R,2019-066A,2026-06-19T23:42:00.198720,14.83065899,.00068166,98.0503,124.5872,120.1046,240.0843,0,U,44622,999,36279,.11463752E-3,.878E-5,0
CARTOSAT-3,2019-081A,2026-06-19T22:09:55.253952,15.19293089,.00133953,97.4297,232.7471,139.6393,220.5838,0,U,44804,999,36388,.93959873E-4,.1918E-4,0
GAOFEN-12 01,2019-082A,2026-06-19T23:39:49.976640,14.80460367,.00021938,97.8100,177.2916,67.0036,293.1407,0,U,44819,999,35450,.41099492E-4,.264E-5,0
CSG-1,2019-092A,2026-06-19T22:54:11.755872,14.82155088,.00014459,97.8889,354.5166,90.0315,270.1064,0,U,44873,999,35188,.43493676E-4,.294E-5,0
NEMO-HD,2020-061F,2026-06-19T23:31:32.302272,15.44641563,.00021526,97.1915,232.9051,79.0129,281.1362,0,U,46277,999,32241,.19563985E-3,.9026E-4,0
SENTINEL-6A,2020-086A,2026-06-19T14:00:50.122080,12.80929975,.00079244,66.0397,130.0742,270.1963,89.8144,0,U,46984,999,26063,.41848121E-4,-.51E-6,0
CAS500-1,2021-022A,2026-06-19T23:01:27.926400,15.20158554,.00032912,97.3894,66.1565,286.2031,73.8841,0,U,47932,999,29118,.22048083E-3,.4703E-4,0
GAOFEN-12 02,2021-026A,2026-06-19T22:18:51.128352,14.80297837,.00038809,97.9922,169.0991,210.6514,149.4472,0,U,48079,999,28216,.40235502E-4,.254E-5,0
PLEIADES NEO 3,2021-034A,2026-06-20T05:23:23.231616,14.81670693,.0001344,97.8936,245.9479,97.8781,262.2585,0,U,48268,999,27810,.76837E-4,.553E-5,0
PLEIADES NEO 4,2021-073E,2026-06-20T04:34:44.415840,14.81668464,.0001332,97.8938,245.9107,95.8558,264.2807,0,U,49070,999,26181,.12545E-3,.935E-5,0
LANDSAT 9,2021-088A,2026-06-19T17:41:44.306304,14.57098593,.00013376,98.2280,240.8839,85.0298,275.1053,0,U,49260,999,25137,.63924997E-4,.242E-5,0
CSG-2,2022-008A,2026-06-19T22:05:33.301248,14.82156994,.00014483,97.8884,354.4780,87.6062,272.5317,0,U,51444,999,23699,.33248663E-4,.212E-5,0
GAOFEN-12 03,2022-069A,2026-06-19T23:02:38.072832,14.80036772,.00021551,97.8273,58.7603,101.4291,258.7163,0,U,52912,999,21502,.44666958E-4,.287E-5,0
SWOT,2022-173A,2026-06-19T22:01:44.795712,14.00169909,.00002793,77.6105,31.6239,91.8241,268.2943,0,U,54754,999,17953,.41862075E-4,.59E-6,0
GAOFEN-12 04,2023-123A,2026-06-19T23:26:07.217952,14.80233177,.00017776,97.9120,88.9543,82.2393,277.9021,0,U,57654,999,15304,.10363904E-3,.737E-5,0
PARS 1,2024-039Q,2026-06-19T23:14:54.707136,15.45773457,.00115406,97.4827,151.9760,103.3207,256.9330,0,U,59065,999,12907,.19898754E-3,.9562E-4,0
RESURS-P 4,2024-061A,2026-06-19T22:34:53.481792,15.32144371,.0002367,97.2753,118.7916,123.5801,236.5667,0,U,59371,999,12418,.8157793E-4,.2456E-4,0
LEGION 1,2024-081A,2026-06-19T22:22:05.098944,15.16682389,.00092562,97.5015,248.7598,8.5045,351.6343,0,U,59625,999,11795,.14323302E-3,.2739E-4,0
LEGION 2,2024-081B,2026-06-19T21:30:18.326016,15.16660566,.00105311,97.5016,248.8216,333.7655,26.3043,0,U,59626,999,11795,.15928339E-3,.3053E-4,0
ALOS-4 (DAICHI-4),2024-123A,2026-06-19T22:21:18.848160,14.79473003,.0001626,97.9248,268.0669,96.8796,263.2600,0,U,60182,999,10628,.15103715E-3,.1077E-4,0
LEGION 3,2024-146A,2026-06-19T23:08:36.770208,15.16055804,.00079962,45.0028,15.6606,186.0915,173.9867,0,U,60452,999,10244,.19298854E-3,.3514E-4,0
LEGION 4,2024-146B,2026-06-19T21:38:12.528960,15.16050418,.00135254,45.0014,107.9076,322.6643,37.3295,0,U,60453,999,10128,.20443687E-3,.3742E-4,0
SENTINEL-2C,2024-157A,2026-06-19T18:14:20.315040,14.30818423,.0000998,98.5692,245.5057,82.9901,277.1395,0,U,60989,999,9335,.44424803E-4,.73E-6,0
IONOSFERA-M 1,2024-199A,2026-06-19T22:28:33.829824,14.22754797,.00020253,98.7170,44.0797,106.7328,253.4072,0,U,61735,999,12809,.33373189E-4,.31E-6,0
